{
  "type": "FeatureCollection",
  "name": "Curated Jezero HiRISE context footprints",
  "features": [
    { "type": "Feature", "properties": { "id": "jezero-west-delta-context", "name": "Western delta context", "instrument": "HiRISE / MRO", "sourceUrl": "https://science.nasa.gov/photojournal/jezero-craters-kodiak-and-scarps/" }, "geometry": { "type": "Polygon", "coordinates": [[[77.27, 18.36], [77.39, 18.36], [77.39, 18.49], [77.27, 18.49], [77.27, 18.36]]] } },
    { "type": "Feature", "properties": { "id": "jezero-floor-context", "name": "Crater floor context", "instrument": "HiRISE / MRO", "sourceUrl": "https://astrogeology.usgs.gov/search/map/mars_2020_terrain_relative_navigation_hirise_dtm_mosaic" }, "geometry": { "type": "Polygon", "coordinates": [[[77.40, 18.34], [77.55, 18.34], [77.55, 18.48], [77.40, 18.48], [77.40, 18.34]]] } },
    { "type": "Feature", "properties": { "id": "jezero-rim-context", "name": "Eastern rim context", "instrument": "HiRISE / MRO", "sourceUrl": "https://ode.rsl.wustl.edu/mars/" }, "geometry": { "type": "Polygon", "coordinates": [[[77.55, 18.42], [77.69, 18.42], [77.69, 18.56], [77.55, 18.56], [77.55, 18.42]]] } }
  ]
}
